[{"OBJECT_NAME":"STARLINK-30229","OBJECT_ID":"2023-107E","EPOCH":"2026-03-09T02:02:43.185120","MEAN_MOTION":15.11069318,"ECCENTRICITY":0.00014534,"INCLINATION":43.0022,"RA_OF_ASC_NODE":341.3096,"ARG_OF_PERICENTER":243.1324,"MEAN_ANOMALY":116.9373,"EPHEMERIS_TYPE":0,"CLASSIFICATION_TYPE":"U","NORAD_CAT_ID":57461,"ELEMENT_SET_NO":999,"REV_AT_EPOCH":14503,"BSTAR":0.0012479096,"MEAN_MOTION_DOT":0.00021089,"MEAN_MOTION_DDOT":0},{"OBJECT_NAME":"UNKNOWN","OBJECT_ID":"","EPOCH":"2026-03-09T02:36:17.309088","MEAN_MOTION":15.13289121,"ECCENTRICITY":0.0003206,"INCLINATION":86.685,"RA_OF_ASC_NODE":115.8978,"ARG_OF_PERICENTER":174.9548,"MEAN_ANOMALY":185.1725,"EPHEMERIS_TYPE":0,"CLASSIFICATION_TYPE":"U","NORAD_CAT_ID":81969,"ELEMENT_SET_NO":999,"REV_AT_EPOCH":45322,"BSTAR":0.00076162,"MEAN_MOTION_DOT":0.00013589,"MEAN_MOTION_DDOT":0}]
